[{"OBJECT_NAME":"ALOS (DAICHI)","OBJECT_ID":"2006-002A","EPOCH":"2026-03-13T07:33:54.978624","MEAN_MOTION":14.69823673,"ECCENTRICITY":8.104e-5,"INCLINATION":98.1221,"RA_OF_ASC_NODE":28.2525,"ARG_OF_PERICENTER":63.575,"MEAN_ANOMALY":296.5539,"EPHEMERIS_TYPE":0,"CLASSIFICATION_TYPE":"U","NORAD_CAT_ID":28931,"ELEMENT_SET_NO":999,"REV_AT_EPOCH":7401,"BSTAR":0.0002885247,"MEAN_MOTION_DOT":1.674e-5,"MEAN_MOTION_DDOT":0},{"OBJECT_NAME":"H-2A R/B","OBJECT_ID":"2006-002B","EPOCH":"2026-03-13T08:53:12.128064","MEAN_MOTION":15.16505611,"ECCENTRICITY":0.00520021,"INCLINATION":98.2409,"RA_OF_ASC_NODE":219.7107,"ARG_OF_PERICENTER":228.4057,"MEAN_ANOMALY":131.2712,"EPHEMERIS_TYPE":0,"CLASSIFICATION_TYPE":"U","NORAD_CAT_ID":28932,"ELEMENT_SET_NO":999,"REV_AT_EPOCH":9499,"BSTAR":0.00052008827,"MEAN_MOTION_DOT":0.00010415,"MEAN_MOTION_DDOT":0},{"OBJECT_NAME":"RESURS-DK 1","OBJECT_ID":"2006-021A","EPOCH":"2026-03-13T10:28:54.642720","MEAN_MOTION":15.12774061,"ECCENTRICITY":0.00014955,"INCLINATION":69.9325,"RA_OF_ASC_NODE":227.3295,"ARG_OF_PERICENTER":158.9675,"MEAN_ANOMALY":201.1553,"EPHEMERIS_TYPE":0,"CLASSIFICATION_TYPE":"U","NORAD_CAT_ID":29228,"ELEMENT_SET_NO":999,"REV_AT_EPOCH":8809,"BSTAR":0.00021774186,"MEAN_MOTION_DOT":3.723e-5,"MEAN_MOTION_DDOT":0},{"OBJECT_NAME":"CZ-4B R/B","OBJECT_ID":"2006-046C","EPOCH":"2026-03-13T13:36:36.921600","MEAN_MOTION":15.16948471,"ECCENTRICITY":0.00317227,"INCLINATION":97.5592,"RA_OF_ASC_NODE":117.4657,"ARG_OF_PERICENTER":253.2446,"MEAN_ANOMALY":106.5306,"EPHEMERIS_TYPE":0,"CLASSIFICATION_TYPE":"U","NORAD_CAT_ID":29507,"ELEMENT_SET_NO":999,"REV_AT_EPOCH":6063,"BSTAR":0.00025810144,"MEAN_MOTION_DOT":5.087e-5,"MEAN_MOTION_DDOT":0},{"OBJECT_NAME":"CZ-2C R/B","OBJECT_ID":"2007-010B","EPOCH":"2026-03-13T07:39:08.785152","MEAN_MOTION":14.202477,"ECCENTRICITY":0.00578703,"INCLINATION":98.398,"RA_OF_ASC_NODE":185.4155,"ARG_OF_PERICENTER":283.8341,"MEAN_ANOMALY":75.6402,"EPHEMERIS_TYPE":0,"CLASSIFICATION_TYPE":"U","NORAD_CAT_ID":31114,"ELEMENT_SET_NO":999,"REV_AT_EPOCH":98023,"BSTAR":8.8465954e-5,"MEAN_MOTION_DOT":1.51e-6,"MEAN_MOTION_DDOT":0},{"OBJECT_NAME":"COSMO-SKYMED 1","OBJECT_ID":"2007-023A","EPOCH":"2026-03-13T14:37:24.187872","MEAN_MOTION":14.96571931,"ECCENTRICITY":0.00015575,"INCLINATION":97.8881,"RA_OF_ASC_NODE":263.6726,"ARG_OF_PERICENTER":96.2002,"MEAN_ANOMALY":263.9397,"EPHEMERIS_TYPE":0,"CLASSIFICATION_TYPE":"U","NORAD_CAT_ID":31598,"ELEMENT_SET_NO":999,"REV_AT_EPOCH":1549,"BSTAR":0.00044534898,"MEAN_MOTION_DOT":5.01e-5,"MEAN_MOTION_DDOT":0},{"OBJECT_NAME":"COSMOS 2428","OBJECT_ID":"2007-029A","EPOCH":"2026-03-13T06:53:04.476768","MEAN_MOTION":14.12946842,"ECCENTRICITY":0.0009262,"INCLINATION":70.9437,"RA_OF_ASC_NODE":195.7931,"ARG_OF_PERICENTER":273.4728,"MEAN_ANOMALY":86.5333,"EPHEMERIS_TYPE":0,"CLASSIFICATION_TYPE":"U","NORAD_CAT_ID":31792,"ELEMENT_SET_NO":999,"REV_AT_EPOCH":96460,"BSTAR":3.677801e-5,"MEAN_MOTION_DOT":2.1e-7,"MEAN_MOTION_DDOT":0},{"OBJECT_NAME":"SL-16 R/B","OBJECT_ID":"2007-029B","EPOCH":"2026-03-13T07:26:23.512704","MEAN_MOTION":14.14834639,"ECCENTRICITY":0.00022934,"INCLINATION":70.9758,"RA_OF_ASC_NODE":164.7755,"ARG_OF_PERICENTER":276.2288,"MEAN_ANOMALY":140.6873,"EPHEMERIS_TYPE":0,"CLASSIFICATION_TYPE":"U","NORAD_CAT_ID":31793,"ELEMENT_SET_NO":999,"REV_AT_EPOCH":96588,"BSTAR":0.0001248485,"MEAN_MOTION_DOT":1.93e-6,"MEAN_MOTION_DDOT":0},{"OBJECT_NAME":"KORONAS-FOTON","OBJECT_ID":"2009-003A","EPOCH":"2026-03-13T00:08:46.682304","MEAN_MOTION":15.43394033,"ECCENTRICITY":0.0011522,"INCLINATION":82.4276,"RA_OF_ASC_NODE":272.429,"ARG_OF_PERICENTER":138.7876,"MEAN_ANOMALY":221.4244,"EPHEMERIS_TYPE":0,"CLASSIFICATION_TYPE":"U","NORAD_CAT_ID":33504,"ELEMENT_SET_NO":999,"REV_AT_EPOCH":94625,"BSTAR":0.00024258724,"MEAN_MOTION_DOT":0.00010895,"MEAN_MOTION_DDOT":0},{"OBJECT_NAME":"CZ-2C R/B","OBJECT_ID":"2011-030B","EPOCH":"2026-03-13T08:18:14.696352","MEAN_MOTION":14.81238528,"ECCENTRICITY":0.00520635,"INCLINATION":97.8544,"RA_OF_ASC_NODE":29.5357,"ARG_OF_PERICENTER":340.1293,"MEAN_ANOMALY":180.5892,"EPHEMERIS_TYPE":0,"CLASSIFICATION_TYPE":"U","NORAD_CAT_ID":37731,"ELEMENT_SET_NO":999,"REV_AT_EPOCH":79063,"BSTAR":0.00024337131,"MEAN_MOTION_DOT":1.885e-5,"MEAN_MOTION_DDOT":0},{"OBJECT_NAME":"H-2A R/B","OBJECT_ID":"2012-025E","EPOCH":"2026-03-13T08:13:00.149376","MEAN_MOTION":14.95200662,"ECCENTRICITY":0.00431998,"INCLINATION":98.4736,"RA_OF_ASC_NODE":39.6814,"ARG_OF_PERICENTER":302.0959,"MEAN_ANOMALY":57.6069,"EPHEMERIS_TYPE":0,"CLASSIFICATION_TYPE":"U","NORAD_CAT_ID":38341,"ELEMENT_SET_NO":999,"REV_AT_EPOCH":74876,"BSTAR":0.00029712737,"MEAN_MOTION_DOT":3.256e-5,"MEAN_MOTION_DDOT":0},{"OBJECT_NAME":"SHIJIAN-16 (SJ-16)","OBJECT_ID":"2013-057A","EPOCH":"2026-03-13T15:37:56.189856","MEAN_MOTION":14.92366072,"ECCENTRICITY":0.00153649,"INCLINATION":74.9733,"RA_OF_ASC_NODE":177.589,"ARG_OF_PERICENTER":102.5142,"MEAN_ANOMALY":257.7767,"EPHEMERIS_TYPE":0,"CLASSIFICATION_TYPE":"U","NORAD_CAT_ID":39358,"ELEMENT_SET_NO":999,"REV_AT_EPOCH":67209,"BSTAR":0.00021511277,"MEAN_MOTION_DOT":2.177e-5,"MEAN_MOTION_DDOT":0},{"OBJECT_NAME":"SL-4 R/B","OBJECT_ID":"2014-021B","EPOCH":"2026-03-13T01:40:41.004192","MEAN_MOTION":15.39304355,"ECCENTRICITY":0.00972029,"INCLINATION":51.6079,"RA_OF_ASC_NODE":320.7867,"ARG_OF_PERICENTER":115.2875,"MEAN_ANOMALY":245.8219,"EPHEMERIS_TYPE":0,"CLASSIFICATION_TYPE":"U","NORAD_CAT_ID":39679,"ELEMENT_SET_NO":999,"REV_AT_EPOCH":65679,"BSTAR":0.00035090988,"MEAN_MOTION_DOT":0.00015984,"MEAN_MOTION_DDOT":0},{"OBJECT_NAME":"ALOS-2","OBJECT_ID":"2014-029A","EPOCH":"2026-03-13T13:46:14.864160","MEAN_MOTION":14.79523854,"ECCENTRICITY":0.0001516,"INCLINATION":97.9187,"RA_OF_ASC_NODE":171.1147,"ARG_OF_PERICENTER":94.1852,"MEAN_ANOMALY":265.9532,"EPHEMERIS_TYPE":0,"CLASSIFICATION_TYPE":"U","NORAD_CAT_ID":39766,"ELEMENT_SET_NO":999,"REV_AT_EPOCH":63744,"BSTAR":0.00038911782,"MEAN_MOTION_DOT":2.859e-5,"MEAN_MOTION_DDOT":0},{"OBJECT_NAME":"YAOGAN-29","OBJECT_ID":"2015-069A","EPOCH":"2026-03-13T15:22:09.172416","MEAN_MOTION":14.83002019,"ECCENTRICITY":0.00016633,"INCLINATION":98.0145,"RA_OF_ASC_NODE":101.0807,"ARG_OF_PERICENTER":30.662,"MEAN_ANOMALY":329.469,"EPHEMERIS_TYPE":0,"CLASSIFICATION_TYPE":"U","NORAD_CAT_ID":41038,"ELEMENT_SET_NO":999,"REV_AT_EPOCH":55646,"BSTAR":0.0001298959,"MEAN_MOTION_DOT":1.001e-5,"MEAN_MOTION_DDOT":0},{"OBJECT_NAME":"ASTRO-H (HITOMI)","OBJECT_ID":"2016-012A","EPOCH":"2026-03-13T03:18:01.494720","MEAN_MOTION":15.10031791,"ECCENTRICITY":0.00097425,"INCLINATION":31.0006,"RA_OF_ASC_NODE":334.2989,"ARG_OF_PERICENTER":5.6652,"MEAN_ANOMALY":354.4095,"EPHEMERIS_TYPE":0,"CLASSIFICATION_TYPE":"U","NORAD_CAT_ID":41337,"ELEMENT_SET_NO":999,"REV_AT_EPOCH":55275,"BSTAR":0.00019775436,"MEAN_MOTION_DOT":3.393e-5,"MEAN_MOTION_DDOT":0}]
